ONEWEB-0035             
1 45143U 20008N   25209.78589052 -.00000124  00000+0 -39142-3 0  9999
2 45143  87.8796 100.7949 0001829  72.6593 287.4735 13.10369680266474
ONEWEB-0036             
1 45144U 20008P   25209.69957984  .00000411  00000+0  11418-2 0  9995
2 45144  87.8806 100.7545 0001794  86.4504 273.6828 13.10375382266864
ONEWEB-0038             
1 45145U 20008Q   25209.89946036 -.00000228  00000+0 -67835-3 0  9997
2 45145  87.8814  85.4955 0003557  72.0040 288.1475 13.11414868268745
ONEWEB-0039             
1 45146U 20008R   25210.14030741  .00000601  00000+0  16851-2 0  9999
2 45146  87.8804 100.6890 0002182  88.2283 271.9094 13.10382315266637
ONEWEB-0040             
1 45147U 20008S   25210.21000178  .00000317  00000+0  87266-3 0  9992
2 45147  87.8812 100.7032 0001828  77.8093 282.3239 13.10377939266357
ONEWEB-0043             
1 45149U 20008U   25209.60080117  .00000467  00000+0  13011-2 0  9998
2 45149  87.8806 100.8092 0001839  91.2422 268.8916 13.10377618265801
ONEWEB-0044             
1 45150U 20008V   25210.16353830  .00000255  00000+0  69469-3 0  9992
2 45150  87.8797 100.6886 0001846  85.9586 274.1753 13.10370197266940
ONEWEB-0045             
1 45151U 20008W   25209.89422029  .00000054  00000+0  11599-3 0  9996
2 45151  87.8811  85.4695 0001908  79.3893 280.7449 13.11414604268819
ONEWEB-0047             
1 45152U 20008X   25209.69875369  .00000431  00000+0  11990-2 0  9997
2 45152  87.8801 100.7906 0001892  79.8334 280.3006 13.10370156266626
ONEWEB-0048             
1 45153U 20008Y   25209.69377984  .00000608  00000+0  17053-2 0  9990
2 45153  87.8804 100.8160 0001833  80.7951 279.3383 13.10372254266205
ONEWEB-0049             
1 45154U 20008Z   25209.61991323  .00000565  00000+0  15832-2 0  9997
2 45154  87.8800 100.8239 0001420  87.4183 272.7107 13.10371556265655
ONEWEB-0051             
1 45155U 20008AA  25210.19771872  .00000183  00000+0  48014-3 0  9993
2 45155  87.8805  85.4525 0001772  77.0337 283.0989 13.11414810269539
ONEWEB-0052             
1 45156U 20008AB  25210.14942858  .00000655  00000+0  18404-2 0  9996
2 45156  87.8818 100.6638 0001472  92.8552 267.2744 13.10372382266390
ONEWEB-0053             
1 45157U 20008AC  25209.75020887  .00000306  00000+0  83897-3 0  9993
2 45157  87.8808 100.8019 0002141  81.9927 278.1443 13.10377213266311
ONEWEB-0054             
1 45158U 20008AD  25210.16685264  .00000064  00000+0  14678-3 0  9999
2 45158  87.8798 100.6930 0001736  76.8258 283.3063 13.10370104266485
ONEWEB-0056             
1 45159U 20008AE  25209.68962317  .00000701  00000+0  19713-2 0  9994
2 45159  87.8802 100.7849 0001813  78.4400 281.6931 13.10371995266579
ONEWEB-0057             
1 45160U 20008AF  25209.69709951  .00000530  00000+0  14831-2 0  9996
2 45160  87.8801 100.7973 0001796  83.2616 276.8716 13.10371602266472
