[{"OBJECT_NAME":"ONEWEB-0035","OBJECT_ID":"2020-008N","EPOCH":"2025-07-28T18:51:40.940928","MEAN_MOTION":13.1036968,"ECCENTRICITY":0.0001829,"INCLINATION":87.8796,"RA_OF_ASC_NODE":100.7949,"ARG_OF_PERICENTER":72.6593,"MEAN_ANOMALY":287.4735,"EPHEMERIS_TYPE":0,"CLASSIFICATION_TYPE":"U","NORAD_CAT_ID":45143,"ELEMENT_SET_NO":999,"REV_AT_EPOCH":26647,"BSTAR":-0.00039142,"MEAN_MOTION_DOT":-1.24e-6,"MEAN_MOTION_DDOT":0},{"OBJECT_NAME":"ONEWEB-0036","OBJECT_ID":"2020-008P","EPOCH":"2025-07-28T16:47:23.698176","MEAN_MOTION":13.10375382,"ECCENTRICITY":0.0001794,"INCLINATION":87.8806,"RA_OF_ASC_NODE":100.7545,"ARG_OF_PERICENTER":86.4504,"MEAN_ANOMALY":273.6828,"EPHEMERIS_TYPE":0,"CLASSIFICATION_TYPE":"U","NORAD_CAT_ID":45144,"ELEMENT_SET_NO":999,"REV_AT_EPOCH":26686,"BSTAR":0.0011418,"MEAN_MOTION_DOT":4.11e-6,"MEAN_MOTION_DDOT":0},{"OBJECT_NAME":"ONEWEB-0038","OBJECT_ID":"2020-008Q","EPOCH":"2025-07-28T21:35:13.375104","MEAN_MOTION":13.11414868,"ECCENTRICITY":0.0003557,"INCLINATION":87.8814,"RA_OF_ASC_NODE":85.4955,"ARG_OF_PERICENTER":72.004,"MEAN_ANOMALY":288.1475,"EPHEMERIS_TYPE":0,"CLASSIFICATION_TYPE":"U","NORAD_CAT_ID":45145,"ELEMENT_SET_NO":999,"REV_AT_EPOCH":26874,"BSTAR":-0.00067835,"MEAN_MOTION_DOT":-2.28e-6,"MEAN_MOTION_DDOT":0},{"OBJECT_NAME":"ONEWEB-0039","OBJECT_ID":"2020-008R","EPOCH":"2025-07-29T03:22:02.560224","MEAN_MOTION":13.10382315,"ECCENTRICITY":0.0002182,"INCLINATION":87.8804,"RA_OF_ASC_NODE":100.689,"ARG_OF_PERICENTER":88.2283,"MEAN_ANOMALY":271.9094,"EPHEMERIS_TYPE":0,"CLASSIFICATION_TYPE":"U","NORAD_CAT_ID":45146,"ELEMENT_SET_NO":999,"REV_AT_EPOCH":26663,"BSTAR":0.0016851,"MEAN_MOTION_DOT":6.01e-6,"MEAN_MOTION_DDOT":0},{"OBJECT_NAME":"ONEWEB-0040","OBJECT_ID":"2020-008S","EPOCH":"2025-07-29T05:02:24.153792","MEAN_MOTION":13.10377939,"ECCENTRICITY":0.0001828,"INCLINATION":87.8812,"RA_OF_ASC_NODE":100.7032,"ARG_OF_PERICENTER":77.8093,"MEAN_ANOMALY":282.3239,"EPHEMERIS_TYPE":0,"CLASSIFICATION_TYPE":"U","NORAD_CAT_ID":45147,"ELEMENT_SET_NO":999,"REV_AT_EPOCH":26635,"BSTAR":0.00087266,"MEAN_MOTION_DOT":3.17e-6,"MEAN_MOTION_DDOT":0},{"OBJECT_NAME":"ONEWEB-0043","OBJECT_ID":"2020-008U","EPOCH":"2025-07-28T14:25:09.221088","MEAN_MOTION":13.10377618,"ECCENTRICITY":0.0001839,"INCLINATION":87.8806,"RA_OF_ASC_NODE":100.8092,"ARG_OF_PERICENTER":91.2422,"MEAN_ANOMALY":268.8916,"EPHEMERIS_TYPE":0,"CLASSIFICATION_TYPE":"U","NORAD_CAT_ID":45149,"ELEMENT_SET_NO":999,"REV_AT_EPOCH":26580,"BSTAR":0.0013011,"MEAN_MOTION_DOT":4.67e-6,"MEAN_MOTION_DDOT":0},{"OBJECT_NAME":"ONEWEB-0044","OBJECT_ID":"2020-008V","EPOCH":"2025-07-29T03:55:29.709120","MEAN_MOTION":13.10370197,"ECCENTRICITY":0.0001846,"INCLINATION":87.8797,"RA_OF_ASC_NODE":100.6886,"ARG_OF_PERICENTER":85.9586,"MEAN_ANOMALY":274.1753,"EPHEMERIS_TYPE":0,"CLASSIFICATION_TYPE":"U","NORAD_CAT_ID":45150,"ELEMENT_SET_NO":999,"REV_AT_EPOCH":26694,"BSTAR":0.00069469,"MEAN_MOTION_DOT":2.55e-6,"MEAN_MOTION_DDOT":0},{"OBJECT_NAME":"ONEWEB-0045","OBJECT_ID":"2020-008W","EPOCH":"2025-07-28T21:27:40.633056","MEAN_MOTION":13.11414604,"ECCENTRICITY":0.0001908,"INCLINATION":87.8811,"RA_OF_ASC_NODE":85.4695,"ARG_OF_PERICENTER":79.3893,"MEAN_ANOMALY":280.7449,"EPHEMERIS_TYPE":0,"CLASSIFICATION_TYPE":"U","NORAD_CAT_ID":45151,"ELEMENT_SET_NO":999,"REV_AT_EPOCH":26881,"BSTAR":0.00011599,"MEAN_MOTION_DOT":5.4e-7,"MEAN_MOTION_DDOT":0},{"OBJECT_NAME":"ONEWEB-0047","OBJECT_ID":"2020-008X","EPOCH":"2025-07-28T16:46:12.318816","MEAN_MOTION":13.10370156,"ECCENTRICITY":0.0001892,"INCLINATION":87.8801,"RA_OF_ASC_NODE":100.7906,"ARG_OF_PERICENTER":79.8334,"MEAN_ANOMALY":280.3006,"EPHEMERIS_TYPE":0,"CLASSIFICATION_TYPE":"U","NORAD_CAT_ID":45152,"ELEMENT_SET_NO":999,"REV_AT_EPOCH":26662,"BSTAR":0.001199,"MEAN_MOTION_DOT":4.31e-6,"MEAN_MOTION_DDOT":0},{"OBJECT_NAME":"ONEWEB-0048","OBJECT_ID":"2020-008Y","EPOCH":"2025-07-28T16:39:02.578176","MEAN_MOTION":13.10372254,"ECCENTRICITY":0.0001833,"INCLINATION":87.8804,"RA_OF_ASC_NODE":100.816,"ARG_OF_PERICENTER":80.7951,"MEAN_ANOMALY":279.3383,"EPHEMERIS_TYPE":0,"CLASSIFICATION_TYPE":"U","NORAD_CAT_ID":45153,"ELEMENT_SET_NO":999,"REV_AT_EPOCH":26620,"BSTAR":0.0017053,"MEAN_MOTION_DOT":6.08e-6,"MEAN_MOTION_DDOT":0},{"OBJECT_NAME":"ONEWEB-0049","OBJECT_ID":"2020-008Z","EPOCH":"2025-07-28T14:52:40.503072","MEAN_MOTION":13.10371556,"ECCENTRICITY":0.000142,"INCLINATION":87.88,"RA_OF_ASC_NODE":100.8239,"ARG_OF_PERICENTER":87.4183,"MEAN_ANOMALY":272.7107,"EPHEMERIS_TYPE":0,"CLASSIFICATION_TYPE":"U","NORAD_CAT_ID":45154,"ELEMENT_SET_NO":999,"REV_AT_EPOCH":26565,"BSTAR":0.0015832,"MEAN_MOTION_DOT":5.65e-6,"MEAN_MOTION_DDOT":0},{"OBJECT_NAME":"ONEWEB-0051","OBJECT_ID":"2020-008AA","EPOCH":"2025-07-29T04:44:42.897408","MEAN_MOTION":13.1141481,"ECCENTRICITY":0.0001772,"INCLINATION":87.8805,"RA_OF_ASC_NODE":85.4525,"ARG_OF_PERICENTER":77.0337,"MEAN_ANOMALY":283.0989,"EPHEMERIS_TYPE":0,"CLASSIFICATION_TYPE":"U","NORAD_CAT_ID":45155,"ELEMENT_SET_NO":999,"REV_AT_EPOCH":26953,"BSTAR":0.00048014,"MEAN_MOTION_DOT":1.83e-6,"MEAN_MOTION_DDOT":0},{"OBJECT_NAME":"ONEWEB-0052","OBJECT_ID":"2020-008AB","EPOCH":"2025-07-29T03:35:10.629312","MEAN_MOTION":13.10372382,"ECCENTRICITY":0.0001472,"INCLINATION":87.8818,"RA_OF_ASC_NODE":100.6638,"ARG_OF_PERICENTER":92.8552,"MEAN_ANOMALY":267.2744,"EPHEMERIS_TYPE":0,"CLASSIFICATION_TYPE":"U","NORAD_CAT_ID":45156,"ELEMENT_SET_NO":999,"REV_AT_EPOCH":26639,"BSTAR":0.0018404,"MEAN_MOTION_DOT":6.55e-6,"MEAN_MOTION_DDOT":0},{"OBJECT_NAME":"ONEWEB-0053","OBJECT_ID":"2020-008AC","EPOCH":"2025-07-28T18:00:18.046368","MEAN_MOTION":13.10377213,"ECCENTRICITY":0.0002141,"INCLINATION":87.8808,"RA_OF_ASC_NODE":100.8019,"ARG_OF_PERICENTER":81.9927,"MEAN_ANOMALY":278.1443,"EPHEMERIS_TYPE":0,"CLASSIFICATION_TYPE":"U","NORAD_CAT_ID":45157,"ELEMENT_SET_NO":999,"REV_AT_EPOCH":26631,"BSTAR":0.00083897,"MEAN_MOTION_DOT":3.06e-6,"MEAN_MOTION_DDOT":0},{"OBJECT_NAME":"ONEWEB-0054","OBJECT_ID":"2020-008AD","EPOCH":"2025-07-29T04:00:16.068096","MEAN_MOTION":13.10370104,"ECCENTRICITY":0.0001736,"INCLINATION":87.8798,"RA_OF_ASC_NODE":100.693,"ARG_OF_PERICENTER":76.8258,"MEAN_ANOMALY":283.3063,"EPHEMERIS_TYPE":0,"CLASSIFICATION_TYPE":"U","NORAD_CAT_ID":45158,"ELEMENT_SET_NO":999,"REV_AT_EPOCH":26648,"BSTAR":0.00014678,"MEAN_MOTION_DOT":6.4e-7,"MEAN_MOTION_DDOT":0},{"OBJECT_NAME":"ONEWEB-0056","OBJECT_ID":"2020-008AE","EPOCH":"2025-07-28T16:33:03.441888","MEAN_MOTION":13.10371995,"ECCENTRICITY":0.0001813,"INCLINATION":87.8802,"RA_OF_ASC_NODE":100.7849,"ARG_OF_PERICENTER":78.44,"MEAN_ANOMALY":281.6931,"EPHEMERIS_TYPE":0,"CLASSIFICATION_TYPE":"U","NORAD_CAT_ID":45159,"ELEMENT_SET_NO":999,"REV_AT_EPOCH":26657,"BSTAR":0.0019713,"MEAN_MOTION_DOT":7.01e-6,"MEAN_MOTION_DDOT":0},{"OBJECT_NAME":"ONEWEB-0057","OBJECT_ID":"2020-008AF","EPOCH":"2025-07-28T16:43:49.397664","MEAN_MOTION":13.10371602,"ECCENTRICITY":0.0001796,"INCLINATION":87.8801,"RA_OF_ASC_NODE":100.7973,"ARG_OF_PERICENTER":83.2616,"MEAN_ANOMALY":276.8716,"EPHEMERIS_TYPE":0,"CLASSIFICATION_TYPE":"U","NORAD_CAT_ID":45160,"ELEMENT_SET_NO":999,"REV_AT_EPOCH":26647,"BSTAR":0.0014831,"MEAN_MOTION_DOT":5.3e-6,"MEAN_MOTION_DDOT":0}]
